DMSP 5D-2 F14 (USA 131) 
1 24753U 97012A   19118.92740895  .00000065  00000-0  56392-4 0  9994
2 24753  99.0327 125.1388 0007846 307.5543  52.4917 14.15833346139417
NOAA 15                 
1 25338U 98030A   19118.96388989  .00000030  00000-0  31412-4 0  9999
2 25338  98.7509 140.3110 0011012  36.2294 323.9630 14.25904069 89768
DMSP 5D-3 F15 (USA 147) 
1 25991U 99067A   19118.89132404 -.00000084  00000-0 -19346-4 0  9999
2 25991  98.9133  83.4501 0009340 197.8045 216.2757 14.16530825  1592
METEOSAT-8 (MSG-1)      
1 27509U 02040B   19119.49997125  .00000136  00000-0  00000+0 0  9995
2 27509   6.0090  55.7700 0002779   2.8432  20.0730  1.00265322 61121
DMSP 5D-3 F16 (USA 172) 
1 28054U 03048A   19118.91297120 -.00000093  00000-0 -26002-4 0  9993
2 28054  98.8623  95.5977 0007073 329.9071  84.1576 14.13692509801074
NOAA 18                 
1 28654U 05018A   19118.91515438  .00000084  00000-0  70532-4 0  9998
2 28654  99.1016 165.1091 0013470 323.8090  36.2169 14.12419137718259
METEOSAT-9 (MSG-2)      
1 28912U 05049B   19119.27708764  .00000015  00000-0  00000+0 0  9997
2 28912   3.5637  71.3165 0001906 334.6972 274.3517  1.00265212 48944
HIMAWARI-7 (MTSAT-2)    
1 28937U 06004A   19118.85063373 -.00000252  00000-0  00000-0 0  9994
2 28937   0.0356 251.0451 0003517 145.6790 271.0267  1.00269465 48359
FORMOSAT-3 FM6          
1 29047U 06011A   19118.85576205 -.00000014  00000-0  10526-4 0  9992
2 29047  71.9792 238.1907 0049034  57.7493 302.8381 14.28673341681980
FORMOSAT-3 FM1          
1 29048U 06011B   19118.51301795  .00000057  00000-0  38962-4 0  9996
2 29048  71.9650 150.2933 0043222  13.6873 346.5424 14.28625891684403
FORMOSAT-3 FM5          
1 29049U 06011C   19118.88793714  .00000086  00000-0  50189-4 0  9990
2 29049  72.0200 318.8180 0033925  44.7027 315.6835 14.28712327680240
FORMOSAT-3 FM3          
1 29050U 06011D   19118.60332952  .00000130  00000-0  37737-4 0  9999
2 29050  72.0142 147.9507 0049958 358.1411   1.9547 14.58787948695787
FORMOSAT-3 FM4          
1 29051U 06011E   19119.52626226  .00000058  00000-0  38595-4 0  9994
2 29051  72.0065 220.3541 0070010 282.0678  77.2619 14.28738481682922
FORMOSAT-3 FM2          
1 29052U 06011F   19119.48507899  .00000060  00000-0  39905-4 0  9993
2 29052  72.0335 293.4058 0039883   3.6026 356.5390 14.28837701681242
GOES 13                 
1 29155U 06018A   19118.89139265 -.00000292  00000-0  00000-0 0  9994
2 29155   0.3162 283.8468 0012206 137.0102  56.3877  1.00283487 17243
METOP-A                 
1 29499U 06044A   19118.94703882 -.00000006  00000-0  16690-4 0  9991
2 29499  98.5796 173.5655 0001591  62.2640  65.5955 14.21547537649673
DMSP 5D-3 F17 (USA 191) 
1 29522U 06050A   19118.90984876 -.00000023  00000-0  10916-4 0  9999
2 29522  98.8231 136.0622 0008852 280.6202  79.3974 14.14007186643987
FENGYUN 3A              
1 32958U 08026A   19119.41602950 -.00000020  00000-0  10056-4 0  9990
2 32958  98.3802 122.4006 0009977  98.0527 262.1787 14.18599849565981
FENGYUN 2E              
1 33463U 08066A   19119.00639466 -.00000207  00000-0  00000+0 0  9993
2 33463   3.4987  69.2139 0003650 262.2078 333.9600  1.00279220 37954
NOAA 19                 
1 33591U 09005A   19118.96565309  .00000078  00000-0  67844-4 0  9996
2 33591  99.1781 108.8678 0014332 156.9299 203.2518 14.12347050526483
GOES 14                 
1 35491U 09033A   19118.89656466 -.00000101  00000-0  00000-0 0  9990
2 35491   0.1730 103.4564 0006737 127.4776 204.0096  1.00272177 35988
METEOR-M 1              
1 35865U 09049A   19119.50659793  .00000030  00000-0  31957-4 0  9996
2 35865  98.4119 119.9586 0001813 353.2604   6.8549 14.22192769498945
DMSP 5D-3 F18 (USA 210) 
1 35951U 09057A   19118.94218460  .00000069  00000-0  59517-4 0  9994
2 35951  98.6201 118.5170 0012246 112.5116 247.7354 14.13186449264999
GOES 15                 
1 36411U 10008A   19118.72132626  .00000046  00000-0  00000-0 0  9993
2 36411   0.1048  98.7891 0001492 334.7284 274.5446  1.00264317 33539
COMS 1                  
1 36744U 10032A   19119.51724395 -.00000351  00000-0  00000+0 0  9996
2 36744   0.0041 271.1833 0000504 138.9815 121.3816  1.00272451 32526
FENGYUN 3B              
1 37214U 10059A   19119.47872322 -.00000003  00000-0  21788-4 0  9992
2 37214  98.9953  91.0406 0017547   7.7246 352.4192 14.15913090438950
SUOMI NPP               
1 37849U 11061A   19118.89180279 -.00000001  00000-0  20082-4 0  9992
2 37849  98.7327  57.7774 0001368  68.0599 332.8864 14.19538596388678
FENGYUN 2F              
1 38049U 12002A   19118.84622369 -.00000364  00000-0  00000+0 0  9992
2 38049   1.1346  81.4046 0001527  95.7751  96.1180  1.00273952 26757
METEOSAT-10 (MSG-3)     
1 38552U 12035B   19118.84745084  .00000052  00000-0  00000-0 0  9991
2 38552   1.0066  17.5349 0000576  74.0609  79.1822  1.00271136 24759
METOP-B                 
1 38771U 12049A   19119.20237385 -.00000006  00000-0  17416-4 0  9993
2 38771  98.7080 179.2233 0002223 101.6208 349.3024 14.21486288343025
FENGYUN 3C              
1 39260U 13052A   19119.44912713 -.00000033  00000-0  48982-5 0  9996
2 39260  98.6079 180.0304 0010418 333.2848  26.7789 14.15864993289897
METEOR-M 2              
1 40069U 14037A   19119.43261778 -.00000020  00000-0  10323-4 0  9999
2 40069  98.5562 166.3657 0006793  52.5091 307.6703 14.20661198249286
HIMAWARI-8              
1 40267U 14060A   19119.51977378 -.00000282  00000-0  00000+0 0  9990
2 40267   0.0382  78.9277 0000988 354.5010 111.5285  1.00272861 16734
FENGYUN 2G              
1 40367U 14090A   19119.00901174 -.00000306  00000-0  00000+0 0  9996
2 40367   1.1222 101.9951 0002390 323.9226 253.4299  1.00266244 15901
METEOSAT-11 (MSG-4)     
1 40732U 15034A   19118.82402035 -.00000010  00000-0  00000-0 0  9995
2 40732   0.8665 217.4761 0000747 161.4644 134.0433  1.00276574 13908
ELEKTRO-L 2             
1 41105U 15074A   19119.14797852 -.00000104  00000-0  00000+0 0  9997
2 41105   0.2389 113.8736 0002760 305.7494 286.4494  1.00273061 12382
HIMAWARI-9              
1 41836U 16064A   19119.51977378 -.00000282  00000-0  00000+0 0  9999
2 41836   0.0142 105.7487 0000444 337.2093 102.1016  1.00267146  9177
GOES 16                 
1 41866U 16071A   19118.79980257 -.00000257  00000-0  00000-0 0  9992
2 41866   0.0015 117.2922 0001031 333.3121 338.6014  1.00272191  8970
FENGYUN 4A              
1 41882U 16077A   19118.93835066 -.00000339  00000-0  00000-0 0  9990
2 41882   0.1660 288.3727 0004841 221.5066 149.2162  1.00274096  8848
CYGFM05                 
1 41884U 16078A   19119.18427440  .00000301  00000-0  17753-4 0  9999
2 41884  34.9556 118.9636 0016399 296.8370  63.0665 15.14364659131113
CYGFM04                 
1 41885U 16078B   19119.16235150  .00000300  00000-0  17467-4 0  9994
2 41885  34.9489 114.5293 0014684 302.5108  57.4184 15.14871851131153
CYGFM02                 
1 41886U 16078C   19118.43055968  .00000296  00000-0  17251-4 0  9996
2 41886  34.9580 120.5259 0015498 293.6478  66.2606 15.14873726131036
CYGFM01                 
1 41887U 16078D   19118.44283001  .00000283  00000-0  16870-4 0  9991
2 41887  34.9523 124.0724 0016863 291.6960  68.1955 15.14182916130997
CYGFM08                 
1 41888U 16078E   19119.20702544  .00000312  00000-0  18193-4 0  9998
2 41888  34.9494 116.8402 0015964 302.1171  57.7991 15.14590528131122
CYGFM06                 
1 41889U 16078F   19119.39568159  .00000319  00000-0  18459-4 0  9993
2 41889  34.9575 113.2007 0014383 301.7637  58.1673 15.14864302131183
CYGFM07                 
1 41890U 16078G   19119.17634794  .00000324  00000-0  18692-4 0  9995
2 41890  34.9513 113.8504 0014145 302.0367  57.8970 15.14864219131155
CYGFM03                 
1 41891U 16078H   19118.38035163  .00000306  00000-0  17775-4 0  9994
2 41891  34.9545 118.9326 0013680 294.4572  65.4712 15.14863652131030
FENGYUN 3D              
1 43010U 17072A   19119.47823221 -.00000012  00000-0  14963-4 0  9996
2 43010  98.7101  59.5623 0001334 141.9938 218.1320 14.19718925 75312
NOAA 20                 
1 43013U 17073A   19118.91944947 -.00000008  00000-0  16831-4 0  9998
2 43013  98.7173  57.8570 0001543  83.1053 277.0298 14.19553611 74702
GOES 17                 
1 43226U 18022A   19119.17720253  .00000090  00000-0  00000+0 0  9996
2 43226   0.0276  86.0068 0002744 321.4637  95.9658  1.00272951  4301
FENGYUN 2H              
1 43491U 18050A   19118.93320374 -.00000137  00000-0  00000-0 0  9998
2 43491   1.6236 282.5289 0002422 231.4242 117.5465  1.00274805  3374
METOP-C                 
1 43689U 18087A   19118.87954245 -.00000044  00000-0  00000+0 0  9996
2 43689  98.7082 179.2050 0003356 102.6947 257.4606 14.21483913 24558
GEO-KOMPSAT-2A          
1 43823U 18100A   19119.51733118 -.00000351  00000-0  00000+0 0  9999
2 43823   0.0522  64.0711 0002254  11.0186  96.5860  1.00271548  1531
